[{"col1":"1 13601U 23001EAE 25076.63376157  .00030938  00000+0  12818-2 0  9996"},{"col1":"2 13601 045.0000 000.0000 0000001 000.0000 200.0000 03.06943000000000"},{"col1":"500.00000"},{"col1":"5800.00000"},{"col1":"0"}]
